1 15632U          19282.04166667  .00000000  00000-0  00000-0 0 00000
2 15632 097.7010 145.6980 0000000 000.0000 146.2330 15.01920000000000
1 15632U          19282.39027778  .00000000  00000-0  00000-0 0 00000
2 15632 097.7000 146.0420 0000000 000.0000 228.7340 15.01920000000000
1 15632U          19282.65902778  .00000000  00000-0  00000-0 0 00000
2 15632 097.7000 146.3070 0000000 000.0000 239.9840 15.01920000000000
1 15632U          19282.96111111  .00000000  00000-0  00000-0 0 00000
2 15632 097.6990 146.6040 0000000 000.0000 071.2340 15.01920000000000
1 15632U          19283.40625000  .00000000  00000-0  00000-0 0 00000
2 15632 097.6980 147.0430 0000000 000.0000 314.9850 15.01920000000000
1 15632U          19283.64861111  .00000000  00000-0  00000-0 0 00000
2 15632 097.6980 147.2820 0000000 000.0000 183.7350 15.01920000000000
1 15632U          19284.07916667  .00000000  00000-0  00000-0 0 00000
2 15632 097.6970 147.7060 0000000 000.0000 348.7360 15.01920000000000
1 15632U          19284.35138889  .00000000  00000-0  00000-0 0 00000
2 15632 097.6970 147.9750 0000000 000.0000 018.7360 15.01920000000000
1 15632U          19284.62152778  .00000000  00000-0  00000-0 0 00000
2 15632 097.6970 148.2410 0000000 000.0000 037.4860 15.01920000000000
1 15632U          19284.97291667  .00000000  00000-0  00000-0 0 00000
2 15632 097.6960 148.5870 0000000 000.0000 134.9860 15.01920000000000
1 15632U          19285.25833333  .00000000  00000-0  00000-0 0 00000
2 15632 097.6960 148.8690 0000000 000.0000 236.2370 15.01920000000000
1 15632U          19285.65000000  .00000000  00000-0  00000-0 0 00000
2 15632 097.6950 149.2550 0000000 000.0000 191.2370 15.01920000000000
1 15632U          19285.96319444  .00000000  00000-0  00000-0 0 00000
2 15632 097.6940 149.5640 0000000 000.0000 082.4870 15.01920000000000
1 15632U          19286.38958333  .00000000  00000-0  00000-0 0 00000
2 15632 097.6940 149.9840 0000000 000.0000 224.9880 15.01920000000000
1 15632U          19286.73472222  .00000000  00000-0  00000-0 0 00000
2 15632 097.6930 150.3240 0000000 000.0000 288.7380 15.01920000000000
1 15632U          19286.93888889  .00000000  00000-0  00000-0 0 00000
2 15632 097.6930 150.5250 0000000 000.0000 311.2380 15.01920000000000
1 15632U          19287.32361111  .00000000  00000-0  00000-0 0 00000
2 15632 097.6920 150.9050 0000000 000.0000 228.7390 15.01920000000000
1 15632U          19287.60138889  .00000000  00000-0  00000-0 0 00000
2 15632 097.6920 151.1780 0000000 000.0000 288.7390 15.01920000000000
1 15632U          19287.92916667  .00000000  00000-0  00000-0 0 00000
2 15632 097.6910 151.5020 0000000 000.0000 258.7390 15.01920000000000
1 15632U          19288.38888889  .00000000  00000-0  00000-0 0 00000
2 15632 097.6900 151.9550 0000000 000.0000 221.2400 15.01920000000000
1 15632U          19288.68680556  .00000000  00000-0  00000-0 0 00000
2 15632 097.6900 152.2480 0000000 000.0000 029.9900 15.01920000000000
1 15632U          19288.94513889  .00000000  00000-0  00000-0 0 00000
2 15632 097.6900 152.5030 0000000 000.0000 344.9900 15.01920000000000
1 15632U          19289.39166667  .00000000  00000-0  00000-0 0 00000
2 15632 097.6890 152.9430 0000000 000.0000 236.2410 15.01920000000000
1 15632U          19289.73263889  .00000000  00000-0  00000-0 0 00000
2 15632 097.6880 153.2790 0000000 000.0000 277.4910 15.01920000000000
1 15632U          19290.03541667  .00000000  00000-0  00000-0 0 00000
2 15632 097.6880 153.5780 0000000 000.0000 112.4910 15.01920000000000
1 15632U          19290.31458333  .00000000  00000-0  00000-0 0 00000
2 15632 097.6870 153.8530 0000000 000.0000 179.9910 15.01920000000000
1 15632U          19290.66666667  .00000000  00000-0  00000-0 0 00000
2 15632 097.6870 154.2000 0000000 000.0000 281.2420 15.01920000000000
1 15632U          19290.97569444  .00000000  00000-0  00000-0 0 00000
2 15632 097.6860 154.5050 0000000 000.0000 149.9920 15.01920000000000
1 15632U          19291.38750000  .00000000  00000-0  00000-0 0 00000
2 15632 097.6850 154.9100 0000000 000.0000 213.7420 15.01920000000000
1 15632U          19291.73611111  .00000000  00000-0  00000-0 0 00000
2 15632 097.6850 155.2540 0000000 000.0000 296.2430 15.01920000000000
1 15632U          19292.02430556  .00000000  00000-0  00000-0 0 00000
2 15632 097.6840 155.5380 0000000 000.0000 052.4930 15.01920000000000
1 15632U          19292.36319444  .00000000  00000-0  00000-0 0 00000
2 15632 097.6840 155.8720 0000000 000.0000 082.4930 15.01920000000000
1 15632U          19292.66180556  .00000000  00000-0  00000-0 0 00000
2 15632 097.6830 156.1670 0000000 000.0000 254.9930 15.01920000000000
1 15632U          19292.93472222  .00000000  00000-0  00000-0 0 00000
2 15632 097.6830 156.4360 0000000 000.0000 288.7440 15.01920000000000
1 15632U          19293.30138889  .00000000  00000-0  00000-0 0 00000
2 15632 097.6820 156.7970 0000000 000.0000 108.7440 15.01920000000000
1 15632U          19293.61250000  .00000000  00000-0  00000-0 0 00000
2 15632 097.6820 157.1040 0000000 000.0000 348.7440 15.01920000000000
1 15632U          19294.05347222  .00000000  00000-0  00000-0 0 00000
2 15632 097.6810 157.5380 0000000 000.0000 209.9940 15.01920000000000
1 15632U          19294.32291667  .00000000  00000-0  00000-0 0 00000
2 15632 097.6800 157.8040 0000000 000.0000 224.9950 15.01920000000000
1 15632U          19294.59652778  .00000000  00000-0  00000-0 0 00000
2 15632 097.6800 158.0740 0000000 000.0000 262.4950 15.01920000000000
1 15632U          19295.05902778  .00000000  00000-0  00000-0 0 00000
2 15632 097.6790 158.5300 0000000 000.0000 239.9950 15.01920000000000
1 15632U          19295.25486111  .00000000  00000-0  00000-0 0 00000
2 15632 097.6790 158.7230 0000000 000.0000 217.4950 15.01920000000000
1 15632U          19295.72777778  .00000000  00000-0  00000-0 0 00000
2 15632 097.6780 159.1890 0000000 000.0000 251.2460 15.01920000000000
1 15632U          19296.02847222  .00000000  00000-0  00000-0 0 00000
2 15632 097.6770 159.4850 0000000 000.0000 074.9960 15.01920000000000
1 15632U          19296.26875000  .00000000  00000-0  00000-0 0 00000
2 15632 097.6770 159.7220 0000000 000.0000 292.4960 15.01920000000000
1 15632U          19296.67847222  .00000000  00000-0  00000-0 0 00000
2 15632 097.6760 160.1260 0000000 000.0000 344.9960 15.01920000000000
1 15632U          19296.98263889  .00000000  00000-0  00000-0 0 00000
2 15632 097.6760 160.4260 0000000 000.0000 187.4960 15.01920000000000
1 15632U          19297.26597222  .00000000  00000-0  00000-0 0 00000
2 15632 097.6750 160.7050 0000000 000.0000 277.4970 15.01920000000000
1 15632U          19297.66041667  .00000000  00000-0  00000-0 0 00000
2 15632 097.6750 161.0940 0000000 000.0000 247.4970 15.01920000000000
1 15632U          19297.97986111  .00000000  00000-0  00000-0 0 00000
2 15632 097.6740 161.4090 0000000 000.0000 172.4970 15.01920000000000
1 15632U          19298.38611111  .00000000  00000-0  00000-0 0 00000
2 15632 097.6730 161.8090 0000000 000.0000 206.2470 15.01920000000000
1 15632U          19298.74166667  .00000000  00000-0  00000-0 0 00000
2 15632 097.6730 162.1590 0000000 000.0000 326.2480 15.01920000000000
1 15632U          19298.97083333  .00000000  00000-0  00000-0 0 00000
2 15632 097.6720 162.3850 0000000 000.0000 123.7480 15.01920000000000
1 15632U          19299.28680556  .00000000  00000-0  00000-0 0 00000
2 15632 097.6720 162.6970 0000000 000.0000 029.9980 15.01920000000000
1 15632U          19299.62222222  .00000000  00000-0  00000-0 0 00000
2 15632 097.6710 163.0270 0000000 000.0000 041.2480 15.01920000000000
1 15632U          19300.07083333  .00000000  00000-0  00000-0 0 00000
2 15632 097.6700 163.4700 0000000 000.0000 303.7480 15.01920000000000
1 15632U          19300.40208333  .00000000  00000-0  00000-0 0 00000
2 15632 097.6700 163.7960 0000000 000.0000 292.4990 15.01920000000000
1 15632U          19300.66666667  .00000000  00000-0  00000-0 0 00000
2 15632 097.6690 164.0570 0000000 000.0000 281.2490 15.01920000000000
1 15632U          19300.98472222  .00000000  00000-0  00000-0 0 00000
2 15632 097.6690 164.3700 0000000 000.0000 198.7490 15.01920000000000
1 15632U          19301.41388889  .00000000  00000-0  00000-0 0 00000
2 15632 097.6680 164.7930 0000000 000.0000 356.2490 15.01920000000000
1 15632U          19301.71458333  .00000000  00000-0  00000-0 0 00000
2 15632 097.6670 165.0900 0000000 000.0000 179.9990 15.01920000000000
1 15632U          19302.01458333  .00000000  00000-0  00000-0 0 00000
2 15632 097.6670 165.3850 0000000 000.0000 359.9990 15.01920000000000
1 15632U          19302.39930556  .00000000  00000-0  00000-0 0 00000
2 15632 097.6660 165.7650 0000000 000.0000 277.5000 15.01920000000000
1 15632U          19302.65069444  .00000000  00000-0  00000-0 0 00000
2 15632 097.6660 166.0120 0000000 000.0000 195.0000 15.01920000000000
1 15632U          19302.92986111  .00000000  00000-0  00000-0 0 00000
2 15632 097.6650 166.2880 0000000 000.0000 262.5000 15.01920000000000
1 15632U          19303.31944444  .00000000  00000-0  00000-0 0 00000
2 15632 097.6640 166.6720 0000000 000.0000 206.2500 15.01920000000000
1 15632U          19303.60833333  .00000000  00000-0  00000-0 0 00000
2 15632 097.6640 166.9560 0000000 000.0000 326.2500 15.01920000000000
1 15632U          19304.05833333  .00000000  00000-0  00000-0 0 00000
2 15632 097.6630 167.4000 0000000 000.0000 236.2500 15.01920000000000
1 15632U          19304.28263889  .00000000  00000-0  00000-0 0 00000
2 15632 097.6630 167.6210 0000000 000.0000 007.5000 15.01920000000000
1 15632U          19304.70347222  .00000000  00000-0  00000-0 0 00000
2 15632 097.6620 168.0360 0000000 000.0000 120.0010 15.01920000000000
1 15632U          19305.02291667  .00000000  00000-0  00000-0 0 00000
2 15632 097.6610 168.3510 0000000 000.0000 045.0010 15.01920000000000
1 15632U          19305.38125000  .00000000  00000-0  00000-0 0 00000
2 15632 097.6610 168.7040 0000000 000.0000 180.0010 15.01920000000000
